{
  "type": "FeatureCollection",
  "features": [
    {
      "type": "Feature",
      "properties": {
        "norad_id": 66739,
        "name": "FLOCK 4H-36",
        "group": "last-30-days",
        "lat": 80.14481942202092,
        "lon": -62.838368562987675,
        "alt_km": 504.5049758942896,
        "timestamp": "2025-12-22T16:55:16.166864+00:00",
        "meta_object_name": "FLOCK 4H-36",
        "meta_object_id": "2025-276CB",
        "meta_epoch": "2025-12-22T05:25:24.111264",
        "meta_mean_motion": 15.1798548,
        "meta_eccentricity": 0.0002369,
        "meta_inclination": 97.4454,
        "meta_ra_of_asc_node": 67.8587,
        "meta_arg_of_pericenter": 187.7976,
        "meta_mean_anomaly": 172.3222,
        "meta_ephemeris_type": 0,
        "meta_classification_type": "U",
        "meta_norad_cat_id": 66739,
        "meta_element_set_no": 999,
        "meta_rev_at_epoch": 356,
        "meta_bstar": 0.00058389131,
        "meta_mean_motion_dot": 0.00011811,
        "meta_mean_motion_ddot": 0,
        "tle_line1": "1 66739U 25276CB  25356.22597351  .00011811  00000+0  58389-3 0  9995",
        "tle_line2": "2 66739  97.4454  67.8587 0002369 187.7976 172.3222 15.17985480  3563"
      },
      "geometry": {
        "type": "Point",
        "coordinates": [
          -62.838368562987675,
          80.14481942202092
        ]
      }
    },
    {
      "type": "Feature",
      "properties": {
        "norad_id": 66740,
        "name": "TRANSPORTER-15 CC",
        "group": "last-30-days",
        "lat": 69.18793914573259,
        "lon": 48.19792889804524,
        "alt_km": 507.548625614113,
        "timestamp": "2025-12-22T16:55:16.166874+00:00",
        "meta_object_name": "TRANSPORTER-15 CC",
        "meta_object_id": "2025-276CC",
        "meta_epoch": "2025-12-22T05:32:06.401760",
        "meta_mean_motion": 15.1770125,
        "meta_eccentricity": 0.00021852,
        "meta_inclination": 97.4414,
        "meta_ra_of_asc_node": 67.8439,
        "meta_arg_of_pericenter": 242.5334,
        "meta_mean_anomaly": 117.5678,
        "meta_ephemeris_type": 0,
        "meta_classification_type": "U",
        "meta_norad_cat_id": 66740,
        "meta_element_set_no": 999,
        "meta_rev_at_epoch": 356,
        "meta_bstar": 0.00056691916,
        "meta_mean_motion_dot": 0.00011371,
        "meta_mean_motion_ddot": 0,
        "tle_line1": "1 66740U 25276CC  25356.23062965  .00011371  00000+0  56692-3 0  9992",
        "tle_line2": "2 66740  97.4414  67.8439 0002185 242.5334 117.5678 15.17701250  3568"
      },
      "geometry": {
        "type": "Point",
        "coordinates": [
          48.19792889804524,
          69.18793914573259
        ]
      }
    },
    {
      "type": "Feature",
      "properties": {
        "norad_id": 66741,
        "name": "TRANSPORTER-15 CD",
        "group": "last-30-days",
        "lat": 63.55969677205142,
        "lon": 53.061787433790506,
        "alt_km": 507.88591817234465,
        "timestamp": "2025-12-22T16:55:16.166884+00:00",
        "meta_object_name": "TRANSPORTER-15 CD",
        "meta_object_id": "2025-276CD",
        "meta_epoch": "2025-12-21T20:03:53.371296",
        "meta_mean_motion": 15.17530287,
        "meta_eccentricity": 0.0001537,
        "meta_inclination": 97.4414,
        "meta_ra_of_asc_node": 67.4463,
        "meta_arg_of_pericenter": 203.7117,
        "meta_mean_anomaly": 156.4047,
        "meta_ephemeris_type": 0,
        "meta_classification_type": "U",
        "meta_norad_cat_id": 66741,
        "meta_element_set_no": 999,
        "meta_rev_at_epoch": 350,
        "meta_bstar": 0.00013950865,
        "meta_mean_motion_dot": 2.732e-05,
        "meta_mean_motion_ddot": 0,
        "tle_line1": "1 66741U 25276CD  25355.83603439  .00002732  00000+0  13951-3 0  9997",
        "tle_line2": "2 66741  97.4414  67.4463 0001537 203.7117 156.4047 15.17530287  3506"
      },
      "geometry": {
        "type": "Point",
        "coordinates": [
          53.061787433790506,
          63.55969677205142
        ]
      }
    },
    {
      "type": "Feature",
      "properties": {
        "norad_id": 66742,
        "name": "TRANSPORTER-15 CE",
        "group": "last-30-days",
        "lat": 72.01448717487337,
        "lon": 44.56150748758809,
        "alt_km": 506.4351664494243,
        "timestamp": "2025-12-22T16:55:16.166894+00:00",
        "meta_object_name": "TRANSPORTER-15 CE",
        "meta_object_id": "2025-276CE",
        "meta_epoch": "2025-12-22T05:31:17.794848",
        "meta_mean_motion": 15.17694992,
        "meta_eccentricity": 0.00016583,
        "meta_inclination": 97.4409,
        "meta_ra_of_asc_node": 67.8344,
        "meta_arg_of_pericenter": 195.2912,
        "meta_mean_anomaly": 164.8272,
        "meta_ephemeris_type": 0,
        "meta_classification_type": "U",
        "meta_norad_cat_id": 66742,
        "meta_element_set_no": 999,
        "meta_rev_at_epoch": 356,
        "meta_bstar": 0.00053893341,
        "meta_mean_motion_dot": 0.00010804,
        "meta_mean_motion_ddot": 0,
        "tle_line1": "1 66742U 25276CE  25356.23006707  .00010804  00000+0  53893-3 0  9996",
        "tle_line2": "2 66742  97.4409  67.8344 0001658 195.2912 164.8272 15.17694992  3568"
      },
      "geometry": {
        "type": "Point",
        "coordinates": [
          44.56150748758809,
          72.01448717487337
        ]
      }
    },
    {
      "type": "Feature",
      "properties": {
        "norad_id": 66743,
        "name": "TRANSPORTER-15 CF",
        "group": "last-30-days",
        "lat": 54.79833591578686,
        "lon": 57.617467683197226,
        "alt_km": 506.65614125578304,
        "timestamp": "2025-12-22T16:55:16.166904+00:00",
        "meta_object_name": "TRANSPORTER-15 CF",
        "meta_object_id": "2025-276CF",
        "meta_epoch": "2025-12-22T07:11:07.852416",
        "meta_mean_motion": 15.17939451,
        "meta_eccentricity": 0.00040927,
        "meta_inclination": 97.4405,
        "meta_ra_of_asc_node": 67.8943,
        "meta_arg_of_pericenter": 154.2993,
        "meta_mean_anomaly": 205.8445,
        "meta_ephemeris_type": 0,
        "meta_classification_type": "U",
        "meta_norad_cat_id": 66743,
        "meta_element_set_no": 999,
        "meta_rev_at_epoch": 357,
        "meta_bstar": 0.013037249,
        "meta_mean_motion_dot": 0.00274523,
        "meta_mean_motion_ddot": 0,
        "tle_line1": "1 66743U 25276CF  25356.29939644  .00274523  00000+0  13037-1 0  9992",
        "tle_line2": "2 66743  97.4405  67.8943 0004092 154.2993 205.8445 15.17939451  3570"
      },
      "geometry": {
        "type": "Point",
        "coordinates": [
          57.617467683197226,
          54.79833591578686
        ]
      }
    },
    {
      "type": "Feature",
      "properties": {
        "norad_id": 66744,
        "name": "TRANSPORTER-15 CG",
        "group": "last-30-days",
        "lat": 52.5581151976826,
        "lon": 58.476113155459906,
        "alt_km": 505.5379910388956,
        "timestamp": "2025-12-22T16:55:16.166914+00:00",
        "meta_object_name": "TRANSPORTER-15 CG",
        "meta_object_id": "2025-276CG",
        "meta_epoch": "2025-12-22T04:02:40.788096",
        "meta_mean_motion": 15.19150892,
        "meta_eccentricity": 0.00070476,
        "meta_inclination": 97.438,
        "meta_ra_of_asc_node": 67.7711,
        "meta_arg_of_pericenter": 218.9372,
        "meta_mean_anomaly": 141.1356,
        "meta_ephemeris_type": 0,
        "meta_classification_type": "U",
        "meta_norad_cat_id": 66744,
        "meta_element_set_no": 999,
        "meta_rev_at_epoch": 355,
        "meta_bstar": 0.040376543,
        "meta_mean_motion_dot": 0.00916134,
        "meta_mean_motion_ddot": 0,
        "tle_line1": "1 66744U 25276CG  25356.16852764  .00916134  00000+0  40377-1 0  9994",
        "tle_line2": "2 66744  97.4380  67.7711 0007047 218.9372 141.1356 15.19150892  3554"
      },
      "geometry": {
        "type": "Point",
        "coordinates": [
          58.476113155459906,
          52.5581151976826
        ]
      }
    },
    {
      "type": "Feature",
      "properties": {
        "norad_id": 66745,
        "name": "TRANSPORTER-15 CH",
        "group": "last-30-days",
        "lat": 52.155878384090954,
        "lon": 58.61546966661813,
        "alt_km": 509.7721450462741,
        "timestamp": "2025-12-22T16:55:16.166924+00:00",
        "meta_object_name": "TRANSPORTER-15 CH",
        "meta_object_id": "2025-276CH",
        "meta_epoch": "2025-12-22T05:36:38.903040",
        "meta_mean_motion": 15.17418705,
        "meta_eccentricity": 0.00013987,
        "meta_inclination": 97.4416,
        "meta_ra_of_asc_node": 67.8379,
        "meta_arg_of_pericenter": 244.5814,
        "meta_mean_anomaly": 115.5275,
        "meta_ephemeris_type": 0,
        "meta_classification_type": "U",
        "meta_norad_cat_id": 66745,
        "meta_element_set_no": 999,
        "meta_rev_at_epoch": 356,
        "meta_bstar": 0.00019568629,
        "meta_mean_motion_dot": 3.846e-05,
        "meta_mean_motion_ddot": 0,
        "tle_line1": "1 66745U 25276CH  25356.23378360  .00003846  00000+0  19569-3 0  9996",
        "tle_line2": "2 66745  97.4416  67.8379 0001398 244.5814 115.5275 15.17418705  3569"
      },
      "geometry": {
        "type": "Point",
        "coordinates": [
          58.61546966661813,
          52.155878384090954
        ]
      }
    }
  ]
}